[{"OBJECT_NAME":"STARLINK-2119","OBJECT_ID":"2021-005BA","EPOCH":"2026-03-09T22:00:01.999584","MEAN_MOTION":15.12970666,"ECCENTRICITY":0.00015717,"INCLINATION":53.0801,"RA_OF_ASC_NODE":60.4953,"ARG_OF_PERICENTER":118.25,"MEAN_ANOMALY":155.5425,"EPHEMERIS_TYPE":0,"CLASSIFICATION_TYPE":"U","NORAD_CAT_ID":47397,"ELEMENT_SET_NO":999,"REV_AT_EPOCH":557,"BSTAR":0.0059694814,"MEAN_MOTION_DOT":0.00107838,"MEAN_MOTION_DDOT":0},{"OBJECT_NAME":"CZ-6A DEB","OBJECT_ID":"2022-151AAA","EPOCH":"2026-03-09T04:57:45.021312","MEAN_MOTION":15.12096834,"ECCENTRICITY":0.00549442,"INCLINATION":98.6194,"RA_OF_ASC_NODE":161.6622,"ARG_OF_PERICENTER":147.3471,"MEAN_ANOMALY":213.1173,"EPHEMERIS_TYPE":0,"CLASSIFICATION_TYPE":"U","NORAD_CAT_ID":55878,"ELEMENT_SET_NO":999,"REV_AT_EPOCH":16515,"BSTAR":0.0054624845,"MEAN_MOTION_DOT":0.00098665,"MEAN_MOTION_DDOT":0}]
